[{"OBJECT_NAME":"STRIX-2","OBJECT_ID":"2024-248A","EPOCH":"2026-03-09T23:00:54.819648","MEAN_MOTION":15.07630986,"ECCENTRICITY":0.00151844,"INCLINATION":97.6197,"RA_OF_ASC_NODE":25.3276,"ARG_OF_PERICENTER":319.5195,"MEAN_ANOMALY":40.4902,"EPHEMERIS_TYPE":0,"CLASSIFICATION_TYPE":"U","NORAD_CAT_ID":62406,"ELEMENT_SET_NO":999,"REV_AT_EPOCH":6663,"BSTAR":0.00066021351,"MEAN_MOTION_DOT":0.00010025,"MEAN_MOTION_DDOT":0},{"OBJECT_NAME":"STARLINK-34958","OBJECT_ID":"2025-179C","EPOCH":"2026-03-09T16:22:17.904288","MEAN_MOTION":15.05622171,"ECCENTRICITY":0.00016486,"INCLINATION":97.6029,"RA_OF_ASC_NODE":112.9018,"ARG_OF_PERICENTER":109.5641,"MEAN_ANOMALY":250.5764,"EPHEMERIS_TYPE":0,"CLASSIFICATION_TYPE":"U","NORAD_CAT_ID":65237,"ELEMENT_SET_NO":999,"REV_AT_EPOCH":3196,"BSTAR":-0.0002252672,"MEAN_MOTION_DOT":-3.307e-5,"MEAN_MOTION_DDOT":0}]
